{"fetched_at":"2026-03-29T02:12:04Z","count":15717,"tles":[{"name":"PIESAT C","line1":"1 56155U 23047C   26086.54695992  .00005015  00000+0  27763-3 0  9997","line2":"2 56155  97.5027 274.8672 0001729  82.7775 277.3653 15.14285401165449","category":"Other"}]}