{
  "norad_id": 56155,
  "name": "PIESAT C",
  "history": [
    {
      "epoch": "2026-03-27T13:07:37.337088",
      "apogee_km": 524.3421068909329,
      "perigee_km": 521.955642235509,
      "latitude_deg": 21.609594216422465,
      "longitude_deg": 112.0081523200497,
      "semi_major_axis_km": 6901.285874563221,
      "eccentricity": 0.0001729,
      "inclination_deg": 97.5027,
      "raan_deg": 274.8672,
      "arg_perigee_deg": 82.7775,
      "mean_anomaly_deg": 277.3653,
      "mean_motion_rev_day": 15.14285401
    }
  ]
}